{
    "links": {
        "self": "http://www.neowsapp.com/rest/v1/neo/3831201?api_key=iIulBulltgU6a56xZRHN4H3l9WmuAYTsLGpBGhQ2"
    },
    "id": "3831201",
    "neo_reference_id": "3831201",
    "name": "(2018 TP1)",
    "designation": "2018 TP1",
    "nasa_jpl_url": "http://ssd.jpl.nasa.gov/sbdb.cgi?sstr=3831201",
    "absolute_magnitude_h": 24.7,
    "estimated_diameter": {
        "kilometers": {
            "estimated_diameter_min": 0.0305179233,
            "estimated_diameter_max": 0.0682401509
        },
        "meters": {
            "estimated_diameter_min": 30.5179232594,
            "estimated_diameter_max": 68.2401509401
        },
        "miles": {
            "estimated_diameter_min": 0.0189629525,
            "estimated_diameter_max": 0.0424024508
        },
        "feet": {
            "estimated_diameter_min": 100.1244233463,
            "estimated_diameter_max": 223.8850168104
        }
    },
    "is_potentially_hazardous_asteroid": false,
    "close_approach_data": [
        {
            "close_approach_date": "2018-10-14",
            "close_approach_date_full": "2018-Oct-14 16:50",
            "epoch_date_close_approach": 1539535800000,
            "relative_velocity": {
                "kilometers_per_second": "19.0657975416",
                "kilometers_per_hour": "68636.871149589",
                "miles_per_hour": "42648.2825206988"
            },
            "miss_distance": {
                "astronomical": "0.0554289157",
                "lunar": "21.5618482073",
                "kilometers": "8292047.725129559",
                "miles": "5152439.5345995542"
            },
            "orbiting_body": "Earth"
        },
        {
            "close_approach_date": "2018-11-12",
            "close_approach_date_full": "2018-Nov-12 06:08",
            "epoch_date_close_approach": 1542002880000,
            "relative_velocity": {
                "kilometers_per_second": "15.5290095731",
                "kilometers_per_hour": "55904.4344632082",
                "miles_per_hour": "34736.8415140974"
            },
            "miss_distance": {
                "astronomical": "0.0963220502",
                "lunar": "37.4692775278",
                "kilometers": "14409573.543953074",
                "miles": "8953693.8119134612"
            },
            "orbiting_body": "Venus"
        }
    ],
    "orbital_data": {
        "orbit_id": "2",
        "orbit_determination_date": "2018-10-10 06:26:00",
        "first_observation_date": "2018-10-04",
        "last_observation_date": "2018-10-10",
        "data_arc_in_days": 6,
        "observations_used": 22,
        "orbit_uncertainty": "9",
        "minimum_orbit_intersection": ".00619437",
        "jupiter_tisserand_invariant": "3.360",
        "epoch_osculation": "2458396.5",
        "eccentricity": ".6714087028120574",
        "semi_major_axis": "2.161921748965683",
        "inclination": "3.763923829753445",
        "ascending_node_longitude": "19.49486284211191",
        "orbital_period": "1161.069943601526",
        "perihelion_distance": ".7103886719114594",
        "perihelion_argument": "78.86060880415413",
        "aphelion_distance": "3.613454826019907",
        "perihelion_time": "2458450.951548654187",
        "mean_anomaly": "343.1168159820742",
        "mean_motion": ".3100588401102822",
        "equinox": "J2000",
        "orbit_class": {
            "orbit_class_type": "APO",
            "orbit_class_description": "Near-Earth asteroid orbits which cross the Earth’s orbit similar to that of 1862 Apollo",
            "orbit_class_range": "a (semi-major axis) > 1.0 AU; q (perihelion) < 1.017 AU"
        }
    },
    "is_sentry_object": false
}